LANDSAT 9               
1 49260U 21088A   23271.78495326  .00000778  00000+0  18286-3 0  9998
2 49260  98.2202 340.3918 0001115  63.3603 296.7709 14.57090589106479
